CRE (WAAS/PRN 138)      
1 28868U 05036A   23010.17614434 -.00000060  00000+0  00000+0 0  9997
2 28868   1.0843  91.7654 0000872 217.2575 116.5208  1.00271261 63583
IOR-W (EGNOS/PRN 126)   
1 28899U 05044A   23009.86009910  .00000023  00000+0  00000+0 0  9999
2 28899   3.6651  39.1606 0003274 257.8482 185.6295  1.00272099 62921
QZS-1 (QZSS/PRN 183)    
1 37158U 10045A   23009.64715420 -.00000165  00000+0  00000+0 0  9998
2 37158  42.5578 130.5501 0759007 270.5084  76.7650  1.00255073 45155
GSAT-8 (GAGAN/PRN 127)  
1 37605U 11022A   23010.24007799  .00000099  00000+0  00000+0 0  9997
2 37605   0.0280  98.9908 0008553 172.7792 339.2329  1.00272452 42664
LUCH 5A (SDCM/PRN 140)  
1 37951U 11074B   23009.93835949 -.00000036  00000+0  00000+0 0  9990
2 37951   5.5389  93.8393 0002412 177.2197 342.9250  1.00274449 40612
SES-5 (EGNOS/PRN 136)   
1 38652U 12036A   23010.26470515  .00000048  00000+0  00000+0 0  9992
2 38652   0.0590 292.4941 0002040 353.5586 283.7374  1.00271612 38490
GSAT-10 (GAGAN/PRN 128) 
1 38779U 12051B   23010.13674698 -.00000151  00000+0  00000+0 0  9999
2 38779   0.0349 259.3015 0004756  11.9415 330.3864  1.00271921 37718
LUCH 5B (SDCM/PRN 125)  
1 38977U 12061A   23007.46292188 -.00000129  00000+0  00000+0 0  9997
2 38977   7.7339  61.0676 0002256 148.2538  47.7381  1.00270736 37575
ASTRA 5B (EGNOS/PRN 123)
1 39617U 14011B   23010.12827161  .00000169  00000+0  00000+0 0  9991
2 39617   0.0358 350.1104 0004083 302.4793 254.4532  1.00270835 32298
LUCH 5V (SDCM/PRN 141)  
1 39727U 14023A   23010.13910043 -.00000256  00000+0  00000+0 0  9997
2 39727   1.9964  77.2250 0003130 232.9680 304.0320  1.00271634549935
GSAT-15 (GAGAN/PRN 139) 
1 41028U 15065A   23009.88104914 -.00000244  00000+0  00000+0 0  9990
2 41028   0.0994 270.6773 0002091 331.0719 278.0435  1.00270314 26237
E 117 W B (WAAS/PRN 131)
1 41589U 16038B   23010.46369580  .00000002  00000+0  00000+0 0  9992
2 41589   0.0047 204.5385 0000302  74.2344 240.8640  1.00279826 24135
SES-15 (WAAS/PRN 133)   
1 42709U 17026A   23008.38035948  .00000073  00000+0  00000+0 0  9999
2 42709   0.0177   4.0190 0000916 317.8024 153.6055  1.00271015 21559
QZS-2 (QZSS/PRN 184)    
1 42738U 17028A   23009.55604962 -.00000128  00000+0  00000+0 0  9993
2 42738  41.4295 261.2475 0754671 269.6942 279.2298  1.00279671 20561
QZS-3 (QZSS/PRN 189)    
1 42917U 17048A   23010.21728741 -.00000333  00000+0  00000+0 0  9999
2 42917   0.0618 175.1669 0002361 131.9419   7.6305  1.00272218 19795
QZS-4 (QZSS/PRN 185)    
1 42965U 17062A   23002.81368800 -.00000364  00000+0  00000+0 0  9995
2 42965  40.7180 359.5598 0750956 271.8631 258.8664  1.00250617 19159
GALAXY 30 (WAAS/PRN 135)
1 46114U 20056C   23009.67896472  .00000051  00000+0  00000+0 0  9996
2 46114   0.0182  47.3308 0002220 249.2540 291.7754  1.00272174  8711
